CCSDS_OMM_VERS = 2.0
CREATION_DATE  = 
ORIGINATOR     = 

OBJECT_NAME    = STARLINK-36550
OBJECT_ID      = 2026-012C
CENTER_NAME    = EARTH
REF_FRAME      = TEME
TIME_SYSTEM    = UTC
MEAN_ELEMENT_THEORY = SGP/SGP4

EPOCH          = 2026-01-30T06:00:02.000160
MEAN_MOTION    = 15.93329639
ECCENTRICITY   = .0001468
INCLINATION    = 42.9959
RA_OF_ASC_NODE = 177.2610
ARG_OF_PERICENTER = 279.0589
MEAN_ANOMALY   = 210.2624

EPHEMERIS_TYPE = 0
CLASSIFICATION_TYPE = U
NORAD_CAT_ID   = 67495
ELEMENT_SET_NO = 999
REV_AT_EPOCH   = 288
BSTAR          = -.47601593E-2
MEAN_MOTION_DOT = -.1746673E-1
MEAN_MOTION_DDOT = .85097043E-3

CCSDS_OMM_VERS = 2.0
CREATION_DATE  = 
ORIGINATOR     = 

OBJECT_NAME    = STARLINK-36534
OBJECT_ID      = 2026-012D
CENTER_NAME    = EARTH
REF_FRAME      = TEME
TIME_SYSTEM    = UTC
MEAN_ELEMENT_THEORY = SGP/SGP4

EPOCH          = 2026-01-30T06:00:02.000160
MEAN_MOTION    = 15.93503033
ECCENTRICITY   = .00015351
INCLINATION    = 42.9962
RA_OF_ASC_NODE = 177.2459
ARG_OF_PERICENTER = 272.4438
MEAN_ANOMALY   = 222.7473

EPHEMERIS_TYPE = 0
CLASSIFICATION_TYPE = U
NORAD_CAT_ID   = 67496
ELEMENT_SET_NO = 999
REV_AT_EPOCH   = 282
BSTAR          = -.46546411E-2
MEAN_MOTION_DOT = -.1724003E-1
MEAN_MOTION_DDOT = .83209576E-3

CCSDS_OMM_VERS = 2.0
CREATION_DATE  = 
ORIGINATOR     = 

OBJECT_NAME    = STARLINK-36555
OBJECT_ID      = 2026-012E
CENTER_NAME    = EARTH
REF_FRAME      = TEME
TIME_SYSTEM    = UTC
MEAN_ELEMENT_THEORY = SGP/SGP4

EPOCH          = 2026-01-30T06:00:02.000160
MEAN_MOTION    = 15.93405110
ECCENTRICITY   = .0001543
INCLINATION    = 42.9961
RA_OF_ASC_NODE = 177.2542
ARG_OF_PERICENTER = 278.1478
MEAN_ANOMALY   = 213.7978

EPHEMERIS_TYPE = 0
CLASSIFICATION_TYPE = U
NORAD_CAT_ID   = 67497
ELEMENT_SET_NO = 999
REV_AT_EPOCH   = 288
BSTAR          = -.47174325E-2
MEAN_MOTION_DOT = -.1738047E-1
MEAN_MOTION_DDOT = .84384728E-3

CCSDS_OMM_VERS = 2.0
CREATION_DATE  = 
ORIGINATOR     = 

OBJECT_NAME    = STARLINK-36081
OBJECT_ID      = 2026-012F
CENTER_NAME    = EARTH
REF_FRAME      = TEME
TIME_SYSTEM    = UTC
MEAN_ELEMENT_THEORY = SGP/SGP4

EPOCH          = 2026-01-30T06:00:02.000160
MEAN_MOTION    = 15.93633539
ECCENTRICITY   = .00015881
INCLINATION    = 42.9963
RA_OF_ASC_NODE = 177.2358
ARG_OF_PERICENTER = 275.0926
MEAN_ANOMALY   = 224.1305

EPHEMERIS_TYPE = 0
CLASSIFICATION_TYPE = U
NORAD_CAT_ID   = 67498
ELEMENT_SET_NO = 999
REV_AT_EPOCH   = 282
BSTAR          = -.46107598E-2
MEAN_MOTION_DOT = -.1719672E-1
MEAN_MOTION_DDOT = .82931409E-3

CCSDS_OMM_VERS = 2.0
CREATION_DATE  = 
ORIGINATOR     = 

OBJECT_NAME    = STARLINK-36558
OBJECT_ID      = 2026-012G
CENTER_NAME    = EARTH
REF_FRAME      = TEME
TIME_SYSTEM    = UTC
MEAN_ELEMENT_THEORY = SGP/SGP4

EPOCH          = 2026-01-30T06:00:02.000160
MEAN_MOTION    = 15.93699368
ECCENTRICITY   = .00015313
INCLINATION    = 42.9962
RA_OF_ASC_NODE = 177.2308
ARG_OF_PERICENTER = 271.3708
MEAN_ANOMALY   = 229.9365

EPHEMERIS_TYPE = 0
CLASSIFICATION_TYPE = U
NORAD_CAT_ID   = 67499
ELEMENT_SET_NO = 999
REV_AT_EPOCH   = 288
BSTAR          = -.45959009E-2
MEAN_MOTION_DOT = -.1720107E-1
MEAN_MOTION_DDOT = .83024812E-3

CCSDS_OMM_VERS = 2.0
CREATION_DATE  = 
ORIGINATOR     = 

OBJECT_NAME    = STARLINK-36557
OBJECT_ID      = 2026-012H
CENTER_NAME    = EARTH
REF_FRAME      = TEME
TIME_SYSTEM    = UTC
MEAN_ELEMENT_THEORY = SGP/SGP4

EPOCH          = 2026-01-30T06:00:02.000160
MEAN_MOTION    = 15.93801391
ECCENTRICITY   = .00015825
INCLINATION    = 42.9962
RA_OF_ASC_NODE = 177.2212
ARG_OF_PERICENTER = 273.0608
MEAN_ANOMALY   = 231.6193

EPHEMERIS_TYPE = 0
CLASSIFICATION_TYPE = U
NORAD_CAT_ID   = 67500
ELEMENT_SET_NO = 999
REV_AT_EPOCH   = 288
BSTAR          = -.45390505E-2
MEAN_MOTION_DOT = -.1708227E-1
MEAN_MOTION_DDOT = .82051694E-3

CCSDS_OMM_VERS = 2.0
CREATION_DATE  = 
ORIGINATOR     = 

OBJECT_NAME    = STARLINK-36433
OBJECT_ID      = 2026-012J
CENTER_NAME    = EARTH
REF_FRAME      = TEME
TIME_SYSTEM    = UTC
MEAN_ELEMENT_THEORY = SGP/SGP4

EPOCH          = 2026-01-30T06:00:02.000160
MEAN_MOTION    = 15.93903129
ECCENTRICITY   = .00014929
INCLINATION    = 42.9962
RA_OF_ASC_NODE = 177.2145
ARG_OF_PERICENTER = 272.7870
MEAN_ANOMALY   = 234.8258

EPHEMERIS_TYPE = 0
CLASSIFICATION_TYPE = U
NORAD_CAT_ID   = 67501
ELEMENT_SET_NO = 999
REV_AT_EPOCH   = 288
BSTAR          = -.45398706E-2
MEAN_MOTION_DOT = -.1717656E-1
MEAN_MOTION_DDOT = .82975237E-3

CCSDS_OMM_VERS = 2.0
CREATION_DATE  = 
ORIGINATOR     = 

OBJECT_NAME    = STARLINK-36554
OBJECT_ID      = 2026-012K
CENTER_NAME    = EARTH
REF_FRAME      = TEME
TIME_SYSTEM    = UTC
MEAN_ELEMENT_THEORY = SGP/SGP4

EPOCH          = 2026-01-28T18:49:29.593920
MEAN_MOTION    = 16.00907404
ECCENTRICITY   = .00123264
INCLINATION    = 42.9964
RA_OF_ASC_NODE = 186.3737
ARG_OF_PERICENTER = 300.6114
MEAN_ANOMALY   = 59.3549

EPHEMERIS_TYPE = 0
CLASSIFICATION_TYPE = U
NORAD_CAT_ID   = 67502
ELEMENT_SET_NO = 999
REV_AT_EPOCH   = 158
BSTAR          = .15774164E-2
MEAN_MOTION_DOT = .888078E-2
MEAN_MOTION_DDOT = .38383813E-3

CCSDS_OMM_VERS = 2.0
CREATION_DATE  = 
ORIGINATOR     = 

OBJECT_NAME    = STARLINK-36552
OBJECT_ID      = 2026-012L
CENTER_NAME    = EARTH
REF_FRAME      = TEME
TIME_SYSTEM    = UTC
MEAN_ELEMENT_THEORY = SGP/SGP4

EPOCH          = 2026-01-30T06:00:02.000160
MEAN_MOTION    = 15.94098526
ECCENTRICITY   = .00015233
INCLINATION    = 42.9963
RA_OF_ASC_NODE = 177.1988
ARG_OF_PERICENTER = 275.4821
MEAN_ANOMALY   = 238.2752

EPHEMERIS_TYPE = 0
CLASSIFICATION_TYPE = U
NORAD_CAT_ID   = 67503
ELEMENT_SET_NO = 999
REV_AT_EPOCH   = 288
BSTAR          = -.44557889E-2
MEAN_MOTION_DOT = -.1703671E-1
MEAN_MOTION_DDOT = .81891125E-3

CCSDS_OMM_VERS = 2.0
CREATION_DATE  = 
ORIGINATOR     = 

OBJECT_NAME    = STARLINK-36512
OBJECT_ID      = 2026-012M
CENTER_NAME    = EARTH
REF_FRAME      = TEME
TIME_SYSTEM    = UTC
MEAN_ELEMENT_THEORY = SGP/SGP4

EPOCH          = 2026-01-30T06:00:02.000160
MEAN_MOTION    = 15.94224851
ECCENTRICITY   = .00015682
INCLINATION    = 42.9960
RA_OF_ASC_NODE = 177.1894
ARG_OF_PERICENTER = 275.4691
MEAN_ANOMALY   = 241.9550

EPHEMERIS_TYPE = 0
CLASSIFICATION_TYPE = U
NORAD_CAT_ID   = 67504
ELEMENT_SET_NO = 999
REV_AT_EPOCH   = 288
BSTAR          = -.44383539E-2
MEAN_MOTION_DOT = -.1708434E-1
MEAN_MOTION_DDOT = .82419331E-3

CCSDS_OMM_VERS = 2.0
CREATION_DATE  = 
ORIGINATOR     = 

OBJECT_NAME    = STARLINK-36545
OBJECT_ID      = 2026-012N
CENTER_NAME    = EARTH
REF_FRAME      = TEME
TIME_SYSTEM    = UTC
MEAN_ELEMENT_THEORY = SGP/SGP4

EPOCH          = 2026-01-30T06:00:02.000160
MEAN_MOTION    = 15.94287871
ECCENTRICITY   = .00013713
INCLINATION    = 42.9962
RA_OF_ASC_NODE = 177.1837
ARG_OF_PERICENTER = 275.5183
MEAN_ANOMALY   = 244.0736

EPHEMERIS_TYPE = 0
CLASSIFICATION_TYPE = U
NORAD_CAT_ID   = 67505
ELEMENT_SET_NO = 999
REV_AT_EPOCH   = 288
BSTAR          = -.44124939E-2
MEAN_MOTION_DOT = -.1704213E-1
MEAN_MOTION_DDOT = .8209542E-3

CCSDS_OMM_VERS = 2.0
CREATION_DATE  = 
ORIGINATOR     = 

OBJECT_NAME    = STARLINK-36553
OBJECT_ID      = 2026-012P
CENTER_NAME    = EARTH
REF_FRAME      = TEME
TIME_SYSTEM    = UTC
MEAN_ELEMENT_THEORY = SGP/SGP4

EPOCH          = 2026-01-30T06:00:02.000160
MEAN_MOTION    = 15.94379073
ECCENTRICITY   = .00014845
INCLINATION    = 42.9965
RA_OF_ASC_NODE = 177.1769
ARG_OF_PERICENTER = 271.6181
MEAN_ANOMALY   = 250.9512

EPHEMERIS_TYPE = 0
CLASSIFICATION_TYPE = U
NORAD_CAT_ID   = 67506
ELEMENT_SET_NO = 999
REV_AT_EPOCH   = 288
BSTAR          = -.43458171E-2
MEAN_MOTION_DOT = -.1686919E-1
MEAN_MOTION_DDOT = .80636863E-3

