STARLINK-36550          
1 67495U 26012C   26030.25002315 -.01746673  85097-3 -47602-2 0  9990
2 67495  42.9959 177.2610 0001468 279.0589 210.2624 15.93329639  2889
STARLINK-36534          
1 67496U 26012D   26030.25002315 -.01724003  83210-3 -46546-2 0  9995
2 67496  42.9962 177.2459 0001535 272.4438 222.7473 15.93503033  2826
STARLINK-36555          
1 67497U 26012E   26030.25002315 -.01738047  84385-3 -47174-2 0  9991
2 67497  42.9961 177.2542 0001543 278.1478 213.7978 15.93405110  2888
STARLINK-36081          
1 67498U 26012F   26030.25002315 -.01719672  82931-3 -46108-2 0  9996
2 67498  42.9963 177.2358 0001588 275.0926 224.1305 15.93633539  2821
STARLINK-36558          
1 67499U 26012G   26030.25002315 -.01720107  83025-3 -45959-2 0  9990
2 67499  42.9962 177.2308 0001531 271.3708 229.9365 15.93699368  2888
STARLINK-36557          
1 67500U 26012H   26030.25002315 -.01708227  82052-3 -45391-2 0  9991
2 67500  42.9962 177.2212 0001582 273.0608 231.6193 15.93801391  2889
STARLINK-36433          
1 67501U 26012J   26030.25002315 -.01717656  82975-3 -45399-2 0  9990
2 67501  42.9962 177.2145 0001492 272.7870 234.8258 15.93903129  2881
STARLINK-36554          
1 67502U 26012K   26028.78437030  .00888078  38384-3  15774-2 0  9995
2 67502  42.9964 186.3737 0012326 300.6114  59.3549 16.00907404  1580
STARLINK-36552          
1 67503U 26012L   26030.25002315 -.01703671  81891-3 -44558-2 0  9996
2 67503  42.9963 177.1988 0001523 275.4821 238.2752 15.94098526  2883
STARLINK-36512          
1 67504U 26012M   26030.25002315 -.01708434  82419-3 -44384-2 0  9993
2 67504  42.9960 177.1894 0001568 275.4691 241.9550 15.94224851  2880
STARLINK-36545          
1 67505U 26012N   26030.25002315 -.01704213  82095-3 -44125-2 0  9998
2 67505  42.9962 177.1837 0001371 275.5183 244.0736 15.94287871  2880
STARLINK-36553          
1 67506U 26012P   26030.25002315 -.01686919  80637-3 -43458-2 0  9999
2 67506  42.9965 177.1769 0001484 271.6181 250.9512 15.94379073  2882
